{
    "links": {
        "self": "http://www.neowsapp.com/rest/v1/neo/3757048?api_key=iIulBulltgU6a56xZRHN4H3l9WmuAYTsLGpBGhQ2"
    },
    "id": "3757048",
    "neo_reference_id": "3757048",
    "name": "(2016 PW8)",
    "designation": "2016 PW8",
    "nasa_jpl_url": "http://ssd.jpl.nasa.gov/sbdb.cgi?sstr=3757048",
    "absolute_magnitude_h": 26.1,
    "estimated_diameter": {
        "kilometers": {
            "estimated_diameter_min": 0.0160160338,
            "estimated_diameter_max": 0.0358129403
        },
        "meters": {
            "estimated_diameter_min": 16.0160337979,
            "estimated_diameter_max": 35.8129403019
        },
        "miles": {
            "estimated_diameter_min": 0.0099518989,
            "estimated_diameter_max": 0.0222531225
        },
        "feet": {
            "estimated_diameter_min": 52.5460443254,
            "estimated_diameter_max": 117.4965270602
        }
    },
    "is_potentially_hazardous_asteroid": false,
    "close_approach_data": [
        {
            "close_approach_date": "2012-11-05",
            "close_approach_date_full": "2012-Nov-05 03:39",
            "epoch_date_close_approach": 1352086740000,
            "relative_velocity": {
                "kilometers_per_second": "12.8808261557",
                "kilometers_per_hour": "46370.97416065",
                "miles_per_hour": "28813.1200277661"
            },
            "miss_distance": {
                "astronomical": "0.0870097767",
                "lunar": "33.8468031363",
                "kilometers": "13016477.263495629",
                "miles": "8088063.9230285202"
            },
            "orbiting_body": "Mars"
        },
        {
            "close_approach_date": "2016-08-12",
            "close_approach_date_full": "2016-Aug-12 03:37",
            "epoch_date_close_approach": 1470973020000,
            "relative_velocity": {
                "kilometers_per_second": "14.132291575",
                "kilometers_per_hour": "50876.2496699006",
                "miles_per_hour": "31612.5230240558"
            },
            "miss_distance": {
                "astronomical": "0.0157371898",
                "lunar": "6.1217668322",
                "kilometers": "2354250.073865726",
                "miles": "1462863.1620339788"
            },
            "orbiting_body": "Earth"
        }
    ],
    "orbital_data": {
        "orbit_id": "5",
        "orbit_determination_date": "2017-04-06 08:24:39",
        "first_observation_date": "2016-08-08",
        "last_observation_date": "2016-08-12",
        "data_arc_in_days": 4,
        "observations_used": 40,
        "orbit_uncertainty": "7",
        "minimum_orbit_intersection": ".00743795",
        "jupiter_tisserand_invariant": "3.243",
        "epoch_osculation": "2459000.5",
        "eccentricity": ".6358332152623483",
        "semi_major_axis": "2.361209304449737",
        "inclination": "1.70438939844993",
        "ascending_node_longitude": "307.9302312719812",
        "orbital_period": "1325.257149182878",
        "perihelion_distance": ".8598740004940877",
        "perihelion_argument": "66.60949462570915",
        "aphelion_distance": "3.862544608405386",
        "perihelion_time": "2458974.900074634297",
        "mean_anomaly": "6.954101803816268",
        "mean_motion": ".2716453936671591",
        "equinox": "J2000",
        "orbit_class": {
            "orbit_class_type": "APO",
            "orbit_class_description": "Near-Earth asteroid orbits which cross the Earth’s orbit similar to that of 1862 Apollo",
            "orbit_class_range": "a (semi-major axis) > 1.0 AU; q (perihelion) < 1.017 AU"
        }
    },
    "is_sentry_object": false
}